{"type": "FeatureCollection", "features": [ {"type": "Feature", "properties": {"norad_id": 65942, "name": "BOTAN", "group": "stations", "lat": -15.919748741121095, "lon": 21.972814992087866, "alt_km": 386.67737945376484, "timestamp": "2025-12-02T21:34:00.060642+00:00", "meta": {"OBJECT_NAME": "BOTAN", "OBJECT_ID": "1998-067XP", "EPOCH": "2025-12-01T23:11:25.783296", "MEAN_MOTION": 15.60127991, "ECCENTRICITY": 0.00045427, "INCLINATION": 51.629, "RA_OF_ASC_NODE": 193.6047, "ARG_OF_PERICENTER": 166.4057, "MEAN_ANOMALY": 193.706, "EPHEMERIS_TYPE": 0, "CLASSIFICATION_TYPE": "U", "NORAD_CAT_ID": 65942, "ELEMENT_SET_NO": 999, "REV_AT_EPOCH": 818, "BSTAR": 0.0011466978, "MEAN_MOTION_DOT": 0.00095633, "MEAN_MOTION_DDOT": 0}, "tle": {"line1": "1 65942U 98067XP  25335.96627064  .00095633  00000+0  11467-2 0  9990", "line2": "2 65942  51.6290 193.6047 0004542 166.4057 193.7060 15.60127991  8189"}}, "geometry": {"type": "Point", "coordinates": [21.972814992087866, -15.919748741121095]}}, {"type": "Feature", "properties": {"norad_id": 65943, "name": "E-KAGAKU-1", "group": "stations", "lat": -16.89222752554625, "lon": 175.45096848396184, "alt_km": 399.4174476020253, "timestamp": "2025-12-02T21:34:00.060655+00:00", "meta": {"OBJECT_NAME": "E-KAGAKU-1", "OBJECT_ID": "1998-067XQ", "EPOCH": "2025-12-01T01:00:17.648352", "MEAN_MOTION": 15.57460747, "ECCENTRICITY": 0.00037303, "INCLINATION": 51.6301, "RA_OF_ASC_NODE": 198.6831, "ARG_OF_PERICENTER": 140.2253, "MEAN_ANOMALY": 219.9013, "EPHEMERIS_TYPE": 0, "CLASSIFICATION_TYPE": "U", "NORAD_CAT_ID": 65943, "ELEMENT_SET_NO": 999, "REV_AT_EPOCH": 803, "BSTAR": 0.0008573363, "MEAN_MOTION_DOT": 0.00064224, "MEAN_MOTION_DDOT": 0}, "tle": {"line1": "1 65943U 98067XQ  25335.04187093  .00064224  00000+0  85734-3 0  9994", "line2": "2 65943  51.6301 198.6831 0003730 140.2253 219.9013 15.57460747  8033"}}, "geometry": {"type": "Point", "coordinates": [175.45096848396184, -16.89222752554625]}}, {"type": "Feature", "properties": {"norad_id": 66052, "name": "HRC MONOBLOCK CAMERA", "group": "stations", "lat": 32.520070851716724, "lon": -19.802208173022, "alt_km": 400.2375871185468, "timestamp": "2025-12-02T21:34:00.060665+00:00", "meta": {"OBJECT_NAME": "HRC MONOBLOCK CAMERA", "OBJECT_ID": "1998-067XR", "EPOCH": "2025-12-02T03:59:40.828128", "MEAN_MOTION": 15.53119225, "ECCENTRICITY": 0.0004487, "INCLINATION": 51.6294, "RA_OF_ASC_NODE": 194.1864, "ARG_OF_PERICENTER": 141.6415, "MEAN_ANOMALY": 218.4895, "EPHEMERIS_TYPE": 0, "CLASSIFICATION_TYPE": "U", "NORAD_CAT_ID": 66052, "ELEMENT_SET_NO": 999, "REV_AT_EPOCH": 719, "BSTAR": 0.00059319, "MEAN_MOTION_DOT": 0.00037569, "MEAN_MOTION_DDOT": 0}, "tle": {"line1": "1 66052U 98067XR  25336.16644477  .00037569  00000+0  59319-3 0  9996", "line2": "2 66052  51.6294 194.1864 0004487 141.6415 218.4895 15.53119225  7194"}}, "geometry": {"type": "Point", "coordinates": [-19.802208173022, 32.520070851716724]}}, {"type": "Feature", "properties": {"norad_id": 66174, "name": "HTV-X1", "group": "stations", "lat": -0.3472237542521371, "lon": 11.472621108993918, "alt_km": 417.3265491037555, "timestamp": "2025-12-02T21:34:00.060675+00:00", "meta": {"OBJECT_NAME": "HTV-X1", "OBJECT_ID": "2025-241A", "EPOCH": "2025-12-02T02:12:50.598720", "MEAN_MOTION": 15.49237019, "ECCENTRICITY": 0.00036389, "INCLINATION": 51.6314, "RA_OF_ASC_NODE": 195.1903, "ARG_OF_PERICENTER": 193.8265, "MEAN_ANOMALY": 166.2625, "EPHEMERIS_TYPE": 0, "CLASSIFICATION_TYPE": "U", "NORAD_CAT_ID": 66174, "ELEMENT_SET_NO": 999, "REV_AT_EPOCH": 51, "BSTAR": 0.00017380747, "MEAN_MOTION_DOT": 9.217e-05, "MEAN_MOTION_DDOT": 0}, "tle": {"line1": "1 66174U 25241A   25336.09225230  .00009217  00000+0  17381-3 0  9991", "line2": "2 66174  51.6314 195.1903 0003638 193.8265 166.2625 15.49237019   513"}}, "geometry": {"type": "Point", "coordinates": [11.472621108993918, -0.3472237542521371]}}, {"type": "Feature", "properties": {"norad_id": 66515, "name": "SZ-21 MODULE", "group": "stations", "lat": 39.474096713233685, "lon": 144.8445145112057, "alt_km": 378.5347157940987, "timestamp": "2025-12-02T21:34:00.060689+00:00", "meta": {"OBJECT_NAME": "SZ-21 MODULE", "OBJECT_ID": "2025-246C", "EPOCH": "2025-12-02T08:58:26.921280", "MEAN_MOTION": 15.6172737, "ECCENTRICITY": 0.0005727, "INCLINATION": 41.4767, "RA_OF_ASC_NODE": 79.2433, "ARG_OF_PERICENTER": 198.8838, "MEAN_ANOMALY": 161.1789, "EPHEMERIS_TYPE": 0, "CLASSIFICATION_TYPE": "U", "NORAD_CAT_ID": 66515, "ELEMENT_SET_NO": 999, "REV_AT_EPOCH": 282, "BSTAR": 0.00035399, "MEAN_MOTION_DOT": 0.00031271, "MEAN_MOTION_DDOT": 0}, "tle": {"line1": "1 66515U 25246C   25336.37392270  .00031271  00000+0  35399-3 0  9999", "line2": "2 66515  41.4767  79.2433 0005727 198.8838 161.1789 15.61727370  2822"}}, "geometry": {"type": "Point", "coordinates": [144.8445145112057, 39.474096713233685]}}, {"type": "Feature", "properties": {"norad_id": 66645, "name": "SHENZHOU-22", "group": "stations", "lat": -40.45524301508381, "lon": 1.485402820078602, "alt_km": 389.26625095225063, "timestamp": "2025-12-02T21:34:00.060699+00:00", "meta": {"OBJECT_NAME": "SHENZHOU-22", "OBJECT_ID": "2025-272A", "EPOCH": "2025-12-02T06:31:22.828800", "MEAN_MOTION": 15.58517706, "ECCENTRICITY": 0.00102589, "INCLINATION": 41.4672, "RA_OF_ASC_NODE": 80.2264, "ARG_OF_PERICENTER": 312.0297, "MEAN_ANOMALY": 47.9667, "EPHEMERIS_TYPE": 0, "CLASSIFICATION_TYPE": "U", "NORAD_CAT_ID": 66645, "ELEMENT_SET_NO": 999, "REV_AT_EPOCH": 26240, "BSTAR": 0.00032073258, "MEAN_MOTION_DOT": 0.00025017, "MEAN_MOTION_DDOT": 0}, "tle": {"line1": "1 66645U 25272A   25336.27179200  .00025017  00000+0  32073-3 0  9994", "line2": "2 66645  41.4672  80.2264 0010258 312.0297  47.9667 15.58517706262403"}}, "geometry": {"type": "Point", "coordinates": [1.485402820078602, -40.45524301508381]}}, {"type": "Feature", "properties": {"norad_id": 66646, "name": "CZ-2F R/B", "group": "stations", "lat": 39.28598788965309, "lon": -174.8928286031627, "alt_km": 230.37036719796288, "timestamp": "2025-12-02T21:34:00.060710+00:00", "meta": {"OBJECT_NAME": "CZ-2F R/B", "OBJECT_ID": "2025-272B", "EPOCH": "2025-11-26T11:17:54.506400", "MEAN_MOTION": 16.01945612, "ECCENTRICITY": 0.01210796, "INCLINATION": 41.4431, "RA_OF_ASC_NODE": 114.9009, "ARG_OF_PERICENTER": 133.7676, "MEAN_ANOMALY": 227.3272, "EPHEMERIS_TYPE": 0, "CLASSIFICATION_TYPE": "U", "NORAD_CAT_ID": 66646, "ELEMENT_SET_NO": 999, "REV_AT_EPOCH": 21, "BSTAR": 0.00029319366, "MEAN_MOTION_DOT": 0.00449059, "MEAN_MOTION_DDOT": 7.567612e-06}, "tle": {"line1": "1 66646U 25272B   25330.47076975  .00449059  75676-5  29319-3 0  9998", "line2": "2 66646  41.4431 114.9009 0121079 133.7676 227.3272 16.01945612   217"}}, "geometry": {"type": "Point", "coordinates": [-174.8928286031627, 39.28598788965309]}}, {"type": "Feature", "properties": {"norad_id": 66664, "name": "SOYUZ-MS 28", "group": "stations", "lat": -0.34726727623948594, "lon": 11.472655538902318, "alt_km": 417.3259023606761, "timestamp": "2025-12-02T21:34:00.060720+00:00", "meta": {"OBJECT_NAME": "SOYUZ-MS 28", "OBJECT_ID": "2025-275A", "EPOCH": "2025-12-02T02:12:50.597856", "MEAN_MOTION": 15.49237019, "ECCENTRICITY": 0.0003639, "INCLINATION": 51.6314, "RA_OF_ASC_NODE": 195.1903, "ARG_OF_PERICENTER": 193.8265, "MEAN_ANOMALY": 166.2625, "EPHEMERIS_TYPE": 0, "CLASSIFICATION_TYPE": "U", "NORAD_CAT_ID": 66664, "ELEMENT_SET_NO": 999, "REV_AT_EPOCH": 79, "BSTAR": 0.00017381, "MEAN_MOTION_DOT": 9.217e-05, "MEAN_MOTION_DDOT": 0}, "tle": {"line1": "1 66664U 25275A   25336.09225229  .00009217  00000+0  17381-3 0  9990", "line2": "2 66664  51.6314 195.1903 0003639 193.8265 166.2625 15.49237019   798"}}, "geometry": {"type": "Point", "coordinates": [11.472655538902318, -0.34726727623948594]}}]}